[{"OBJECT_NAME":"STARLINK-2419","OBJECT_ID":"2021-018AV","EPOCH":"2026-03-09T22:07:36.438528","MEAN_MOTION":15.30183402,"ECCENTRICITY":8.302e-5,"INCLINATION":53.1596,"RA_OF_ASC_NODE":254.5564,"ARG_OF_PERICENTER":53.0754,"MEAN_ANOMALY":307.0323,"EPHEMERIS_TYPE":0,"CLASSIFICATION_TYPE":"U","NORAD_CAT_ID":47830,"ELEMENT_SET_NO":999,"REV_AT_EPOCH":27657,"BSTAR":-0.00016869833,"MEAN_MOTION_DOT":-5.349e-5,"MEAN_MOTION_DDOT":0},{"OBJECT_NAME":"VSP RF C1","OBJECT_ID":"2024-043AQ","EPOCH":"2026-03-09T21:56:05.358624","MEAN_MOTION":15.29409663,"ECCENTRICITY":0.00093965,"INCLINATION":97.5441,"RA_OF_ASC_NODE":205.1792,"ARG_OF_PERICENTER":219.6172,"MEAN_ANOMALY":140.4382,"EPHEMERIS_TYPE":0,"CLASSIFICATION_TYPE":"U","NORAD_CAT_ID":59136,"ELEMENT_SET_NO":999,"REV_AT_EPOCH":11190,"BSTAR":0.00026222052,"MEAN_MOTION_DOT":7.409e-5,"MEAN_MOTION_DDOT":0}]
